STARLINK-4153           
1 53037U 22076BD  26068.27906744  .00000354  00000+0  40334-4 0  9995
2 53037  53.2173  75.9618 0001240  83.7396 276.3738 15.08840886203065
KUIPER-00148            
1 65769U 25217H   26068.27522507  .00015783  00000+0  98730-3 0  9995
2 65769  51.8794  26.5769 0008108 351.8096   8.2745 15.09536529 25078
